STARLINK-36903          
1 68001U 26039R   26076.16668981 -.01895410  00000+0 -19482-1 0  9995
2 68001  43.0000   9.1942 0001049 271.3389 257.4145 15.67054634  4076
STARLINK-36898          
1 68002U 26039S   26076.16668981 -.01913398  00000+0 -17336-1 0  9998
2 68002  43.0004   9.0848 0001222 260.8827 311.6701 15.70112599  4078
STARLINK-36862          
1 68003U 26039T   26076.16668981 -.01886682  00000+0 -18660-1 0  9995
2 68003  43.0001   9.1225 0001063 267.3291 290.0277 15.67974106  4070
STARLINK-36888          
1 68004U 26039U   26076.16668981 -.01892534  00000+0 -18979-1 0  9992
2 68004  43.0001   9.1652 0001108 265.8253 274.6991 15.67648170  4076
STARLINK-36910          
1 68005U 26039V   26076.16668981 -.01923091  00000+0 -16581-1 0  9993
2 68005  42.9999   9.0457 0001176 259.4198 328.8632 15.71298093  4079
STARLINK-36889          
1 68006U 26039W   26076.16668981 -.01886277  00000+0 -20215-1 0  9997
2 68006  43.0004   9.1744 0001116 265.6796 270.6748 15.66017156  4071
STARLINK-36592          
1 68007U 26039X   26076.16668981 -.01917430  00000+0 -17161-1 0  9990
2 68007  43.0002   9.0345 0001260 259.3107 333.2966 15.70408540  4076
STARLINK-36911          
1 68008U 26039Y   26076.16668981 -.01909560  00000+0 -18196-1 0  9995
2 68008  42.9997   9.0634 0001264 261.9368 318.9774 15.68904880  4073
STARLINK-36956          
1 68009U 26039Z   26076.16668981 -.01869520  00000+0 -18653-1 0  9995
2 68009  42.9999   9.0862 0001022 258.9573 312.6763 15.67734496  4077
STARLINK-36953          
1 68010U 26039AA  26076.16668981 -.01893107  00000+0 -14067-1 0  9990
2 68010  42.9998   8.8963 0001472 257.0046  30.5652 15.75192090  4071
STARLINK-36991          
1 68011U 26039AB  26076.16668981 -.01887368  00000+0 -28648-1 0  9993
2 68011  42.9994   9.4972 0001358 267.6136 138.2198 15.57141697  4073
STARLINK-36936          
1 68012U 26039AC  26076.16668981 -.01879078  00000+0 -18927-1 0  9992
2 68012  42.9994   9.0386 0001104 258.6079 331.6827 15.67519505  4070
