CCSDS_OMM_VERS = 2.0
CREATION_DATE  = 
ORIGINATOR     = 

OBJECT_NAME    = STARLINK-36903
OBJECT_ID      = 2026-039R
CENTER_NAME    = EARTH
REF_FRAME      = TEME
TIME_SYSTEM    = UTC
MEAN_ELEMENT_THEORY = SGP/SGP4

EPOCH          = 2026-03-17T04:00:01.999584
MEAN_MOTION    = 15.67054634
ECCENTRICITY   = .0001049
INCLINATION    = 43.0000
RA_OF_ASC_NODE = 9.1942
ARG_OF_PERICENTER = 271.3389
MEAN_ANOMALY   = 257.4145

EPHEMERIS_TYPE = 0
CLASSIFICATION_TYPE = U
NORAD_CAT_ID   = 68001
ELEMENT_SET_NO = 999
REV_AT_EPOCH   = 407
BSTAR          = -.19482E-1
MEAN_MOTION_DOT = -.189541E-1
MEAN_MOTION_DDOT = 0

CCSDS_OMM_VERS = 2.0
CREATION_DATE  = 
ORIGINATOR     = 

OBJECT_NAME    = STARLINK-36898
OBJECT_ID      = 2026-039S
CENTER_NAME    = EARTH
REF_FRAME      = TEME
TIME_SYSTEM    = UTC
MEAN_ELEMENT_THEORY = SGP/SGP4

EPOCH          = 2026-03-17T04:00:01.999584
MEAN_MOTION    = 15.70112599
ECCENTRICITY   = .0001222
INCLINATION    = 43.0004
RA_OF_ASC_NODE = 9.0848
ARG_OF_PERICENTER = 260.8827
MEAN_ANOMALY   = 311.6701

EPHEMERIS_TYPE = 0
CLASSIFICATION_TYPE = U
NORAD_CAT_ID   = 68002
ELEMENT_SET_NO = 999
REV_AT_EPOCH   = 407
BSTAR          = -.17336E-1
MEAN_MOTION_DOT = -.1913398E-1
MEAN_MOTION_DDOT = 0

CCSDS_OMM_VERS = 2.0
CREATION_DATE  = 
ORIGINATOR     = 

OBJECT_NAME    = STARLINK-36862
OBJECT_ID      = 2026-039T
CENTER_NAME    = EARTH
REF_FRAME      = TEME
TIME_SYSTEM    = UTC
MEAN_ELEMENT_THEORY = SGP/SGP4

EPOCH          = 2026-03-17T04:00:01.999584
MEAN_MOTION    = 15.67974106
ECCENTRICITY   = .0001063
INCLINATION    = 43.0001
RA_OF_ASC_NODE = 9.1225
ARG_OF_PERICENTER = 267.3291
MEAN_ANOMALY   = 290.0277

EPHEMERIS_TYPE = 0
CLASSIFICATION_TYPE = U
NORAD_CAT_ID   = 68003
ELEMENT_SET_NO = 999
REV_AT_EPOCH   = 407
BSTAR          = -.1866E-1
MEAN_MOTION_DOT = -.1886682E-1
MEAN_MOTION_DDOT = 0

CCSDS_OMM_VERS = 2.0
CREATION_DATE  = 
ORIGINATOR     = 

OBJECT_NAME    = STARLINK-36888
OBJECT_ID      = 2026-039U
CENTER_NAME    = EARTH
REF_FRAME      = TEME
TIME_SYSTEM    = UTC
MEAN_ELEMENT_THEORY = SGP/SGP4

EPOCH          = 2026-03-17T04:00:01.999584
MEAN_MOTION    = 15.67648170
ECCENTRICITY   = .0001108
INCLINATION    = 43.0001
RA_OF_ASC_NODE = 9.1652
ARG_OF_PERICENTER = 265.8253
MEAN_ANOMALY   = 274.6991

EPHEMERIS_TYPE = 0
CLASSIFICATION_TYPE = U
NORAD_CAT_ID   = 68004
ELEMENT_SET_NO = 999
REV_AT_EPOCH   = 407
BSTAR          = -.18979E-1
MEAN_MOTION_DOT = -.1892534E-1
MEAN_MOTION_DDOT = 0

CCSDS_OMM_VERS = 2.0
CREATION_DATE  = 
ORIGINATOR     = 

OBJECT_NAME    = STARLINK-36910
OBJECT_ID      = 2026-039V
CENTER_NAME    = EARTH
REF_FRAME      = TEME
TIME_SYSTEM    = UTC
MEAN_ELEMENT_THEORY = SGP/SGP4

EPOCH          = 2026-03-17T04:00:01.999584
MEAN_MOTION    = 15.71298093
ECCENTRICITY   = .0001176
INCLINATION    = 42.9999
RA_OF_ASC_NODE = 9.0457
ARG_OF_PERICENTER = 259.4198
MEAN_ANOMALY   = 328.8632

EPHEMERIS_TYPE = 0
CLASSIFICATION_TYPE = U
NORAD_CAT_ID   = 68005
ELEMENT_SET_NO = 999
REV_AT_EPOCH   = 407
BSTAR          = -.16581E-1
MEAN_MOTION_DOT = -.1923091E-1
MEAN_MOTION_DDOT = 0

CCSDS_OMM_VERS = 2.0
CREATION_DATE  = 
ORIGINATOR     = 

OBJECT_NAME    = STARLINK-36889
OBJECT_ID      = 2026-039W
CENTER_NAME    = EARTH
REF_FRAME      = TEME
TIME_SYSTEM    = UTC
MEAN_ELEMENT_THEORY = SGP/SGP4

EPOCH          = 2026-03-17T04:00:01.999584
MEAN_MOTION    = 15.66017156
ECCENTRICITY   = .0001116
INCLINATION    = 43.0004
RA_OF_ASC_NODE = 9.1744
ARG_OF_PERICENTER = 265.6796
MEAN_ANOMALY   = 270.6748

EPHEMERIS_TYPE = 0
CLASSIFICATION_TYPE = U
NORAD_CAT_ID   = 68006
ELEMENT_SET_NO = 999
REV_AT_EPOCH   = 407
BSTAR          = -.20215E-1
MEAN_MOTION_DOT = -.1886277E-1
MEAN_MOTION_DDOT = 0

CCSDS_OMM_VERS = 2.0
CREATION_DATE  = 
ORIGINATOR     = 

OBJECT_NAME    = STARLINK-36592
OBJECT_ID      = 2026-039X
CENTER_NAME    = EARTH
REF_FRAME      = TEME
TIME_SYSTEM    = UTC
MEAN_ELEMENT_THEORY = SGP/SGP4

EPOCH          = 2026-03-17T04:00:01.999584
MEAN_MOTION    = 15.70408540
ECCENTRICITY   = .000126
INCLINATION    = 43.0002
RA_OF_ASC_NODE = 9.0345
ARG_OF_PERICENTER = 259.3107
MEAN_ANOMALY   = 333.2966

EPHEMERIS_TYPE = 0
CLASSIFICATION_TYPE = U
NORAD_CAT_ID   = 68007
ELEMENT_SET_NO = 999
REV_AT_EPOCH   = 407
BSTAR          = -.17161E-1
MEAN_MOTION_DOT = -.191743E-1
MEAN_MOTION_DDOT = 0

CCSDS_OMM_VERS = 2.0
CREATION_DATE  = 
ORIGINATOR     = 

OBJECT_NAME    = STARLINK-36911
OBJECT_ID      = 2026-039Y
CENTER_NAME    = EARTH
REF_FRAME      = TEME
TIME_SYSTEM    = UTC
MEAN_ELEMENT_THEORY = SGP/SGP4

EPOCH          = 2026-03-17T04:00:01.999584
MEAN_MOTION    = 15.68904880
ECCENTRICITY   = .0001264
INCLINATION    = 42.9997
RA_OF_ASC_NODE = 9.0634
ARG_OF_PERICENTER = 261.9368
MEAN_ANOMALY   = 318.9774

EPHEMERIS_TYPE = 0
CLASSIFICATION_TYPE = U
NORAD_CAT_ID   = 68008
ELEMENT_SET_NO = 999
REV_AT_EPOCH   = 407
BSTAR          = -.18196E-1
MEAN_MOTION_DOT = -.190956E-1
MEAN_MOTION_DDOT = 0

CCSDS_OMM_VERS = 2.0
CREATION_DATE  = 
ORIGINATOR     = 

OBJECT_NAME    = STARLINK-36956
OBJECT_ID      = 2026-039Z
CENTER_NAME    = EARTH
REF_FRAME      = TEME
TIME_SYSTEM    = UTC
MEAN_ELEMENT_THEORY = SGP/SGP4

EPOCH          = 2026-03-17T04:00:01.999584
MEAN_MOTION    = 15.67734496
ECCENTRICITY   = .0001022
INCLINATION    = 42.9999
RA_OF_ASC_NODE = 9.0862
ARG_OF_PERICENTER = 258.9573
MEAN_ANOMALY   = 312.6763

EPHEMERIS_TYPE = 0
CLASSIFICATION_TYPE = U
NORAD_CAT_ID   = 68009
ELEMENT_SET_NO = 999
REV_AT_EPOCH   = 407
BSTAR          = -.18653E-1
MEAN_MOTION_DOT = -.186952E-1
MEAN_MOTION_DDOT = 0

CCSDS_OMM_VERS = 2.0
CREATION_DATE  = 
ORIGINATOR     = 

OBJECT_NAME    = STARLINK-36953
OBJECT_ID      = 2026-039AA
CENTER_NAME    = EARTH
REF_FRAME      = TEME
TIME_SYSTEM    = UTC
MEAN_ELEMENT_THEORY = SGP/SGP4

EPOCH          = 2026-03-17T04:00:01.999584
MEAN_MOTION    = 15.75192090
ECCENTRICITY   = .0001472
INCLINATION    = 42.9998
RA_OF_ASC_NODE = 8.8963
ARG_OF_PERICENTER = 257.0046
MEAN_ANOMALY   = 30.5652

EPHEMERIS_TYPE = 0
CLASSIFICATION_TYPE = U
NORAD_CAT_ID   = 68010
ELEMENT_SET_NO = 999
REV_AT_EPOCH   = 407
BSTAR          = -.14067E-1
MEAN_MOTION_DOT = -.1893107E-1
MEAN_MOTION_DDOT = 0

CCSDS_OMM_VERS = 2.0
CREATION_DATE  = 
ORIGINATOR     = 

OBJECT_NAME    = STARLINK-36991
OBJECT_ID      = 2026-039AB
CENTER_NAME    = EARTH
REF_FRAME      = TEME
TIME_SYSTEM    = UTC
MEAN_ELEMENT_THEORY = SGP/SGP4

EPOCH          = 2026-03-17T04:00:01.999584
MEAN_MOTION    = 15.57141697
ECCENTRICITY   = .0001358
INCLINATION    = 42.9994
RA_OF_ASC_NODE = 9.4972
ARG_OF_PERICENTER = 267.6136
MEAN_ANOMALY   = 138.2198

EPHEMERIS_TYPE = 0
CLASSIFICATION_TYPE = U
NORAD_CAT_ID   = 68011
ELEMENT_SET_NO = 999
REV_AT_EPOCH   = 407
BSTAR          = -.28648E-1
MEAN_MOTION_DOT = -.1887368E-1
MEAN_MOTION_DDOT = 0

CCSDS_OMM_VERS = 2.0
CREATION_DATE  = 
ORIGINATOR     = 

OBJECT_NAME    = STARLINK-36936
OBJECT_ID      = 2026-039AC
CENTER_NAME    = EARTH
REF_FRAME      = TEME
TIME_SYSTEM    = UTC
MEAN_ELEMENT_THEORY = SGP/SGP4

EPOCH          = 2026-03-17T04:00:01.999584
MEAN_MOTION    = 15.67519505
ECCENTRICITY   = .0001104
INCLINATION    = 42.9994
RA_OF_ASC_NODE = 9.0386
ARG_OF_PERICENTER = 258.6079
MEAN_ANOMALY   = 331.6827

EPHEMERIS_TYPE = 0
CLASSIFICATION_TYPE = U
NORAD_CAT_ID   = 68012
ELEMENT_SET_NO = 999
REV_AT_EPOCH   = 407
BSTAR          = -.18927E-1
MEAN_MOTION_DOT = -.1879078E-1
MEAN_MOTION_DDOT = 0

